#aV2006  8 10  0  0   .00000000      96 DD+AD WGS84 FIT  NGA
## 1387 345600.00000000   900.00000000 53957  .0000000000000
+   29     1  2  3  4  5  6  7  8  9 10 11 13 14 15 16 17 18
+         19 20 21 22 23 24 25 26 27 28 29 30  0  0  0  0  0
+          0  0  0  0  0  0  0  0  0  0  0  0  0  0  0  0  0
+          0  0  0  0  0  0  0  0  0  0  0  0  0  0  0  0  0
+          0  0  0  0  0  0  0  0  0  0  0  0  0  0  0  0  0
++         0  0  0  0  0  0  0  0  0  0  0  0  0  0  0  0  0
++         0  0  0  0  0  0  0  0  0  0  0  0  0  0  0  0  0
++         0  0  0  0  0  0  0  0  0  0  0  0  0  0  0  0  0
++         0  0  0  0  0  0  0  0  0  0  0  0  0  0  0  0  0
++         0  0  0  0  0  0  0  0  0  0  0  0  0  0  0  0  0
%c cc cc ccc ccc cccc cccc cccc cccc ccccc ccccc ccccc ccccc
%c cc cc ccc ccc cccc cccc cccc cccc ccccc ccccc ccccc ccccc
%f  0.0000000  0.000000000  0.00000000000  0.000000000000000
%f  0.0000000  0.000000000  0.00000000000  0.000000000000000
%i    0    0    0    0      0      0      0      0         0
%i    0    0    0    0      0      0      0      0         0
/*      NGA, ST. LOUIS,MO.                                  
/*   EPHEMERIS COMPUTED FROM  3 DAYS OF DATA                
/* CCCCCCCCCCCCCCCCCCCCCCCCCCCCCCCCCCCCCCCCCCCCCCCCCCCCCCCCC
/* CCCCCCCCCCCCCCCCCCCCCCCCCCCCCCCCCCCCCCCCCCCCCCCCCCCCCCCCC
*  2006  8 10 12 15   .00000000                                                 
P  1 -18286.148404 -10308.477856 -16114.847533     70.158065                    
V  1  -9266.386556 -18609.535283  22095.638719       .021441                    
P  2  17172.812866  -1395.542357 -20403.005296     22.729044                    
V  2 -10649.453638  23155.454496 -10898.789355       .040963                    
P  3 -19703.415312  -4135.619488  17303.413209    176.296926                    
V  3 -12023.597905 -18907.653814 -17715.565123      -.216815                    
P  4  11369.963846  11075.386913 -21292.292533    290.971188                    
V  4 -13477.699505  23452.670034   5357.783507       .067699                    
P  5  18123.802231 -13014.841019 -14489.820813    288.139844                    
V  5  18356.600707    321.330778  23171.612157       .237835                    
P  6  -3611.810673 -22584.841331 -13252.166965    598.072515                    
V  6  12220.335876  12522.415907 -24378.012314       .021623                    
P  7 -18698.020682 -17805.004953   6329.572370    536.834328                    
V  7  -1660.629264  -8256.172298 -29846.366166      -.024004                    
P  8   4151.738208  18162.880473  18616.691771    -75.449001                    
V  8 -13302.519404  20099.806472 -16921.031348      -.013737                    
P  9  15286.679211 -19940.326247   7612.443580     31.401585                    
V  9  -1814.171517  10760.035010  29899.145680       .015460                    
P 10  26716.404649   -765.976579    257.289327     87.895183                    
V 10    487.433214   2152.542442 -31824.455069       .005870                    
P 11 -13076.910945  21969.831298   6623.205955    344.168221                    
V 11  -1756.725680  -9744.037116  28810.473605       .020966                    
P 13   3684.685906  22839.718494 -13185.098807     84.375062                    
V 13  -9707.189228 -13434.553136 -26127.180533       .031723                    
P 14 -15572.520552 -21338.794585  -3017.946532     -7.931109                    
V 14   -411.036553  -4330.530517  31969.823043       .008743                    
P 15  -4686.156716 -17772.630595  18874.963576    660.623315                    
V 15  14303.292507 -19876.487512 -15467.948239       .071846                    
P 16 -26235.543568  -1908.426404  -4034.615535     63.476713                    
V 16   5114.066929  -2791.155522 -31178.435789       .030784                    
P 17  15516.563254  21513.199012  -2210.643647     98.852783                    
V 17   -821.146515   3835.257298  31502.282844      -.009504                    
P 18  -2084.512794 -15300.999731  21738.116662   -245.848984                    
V 18  27328.932056   -111.233523   2238.054714      -.010754                    
P 19 -14029.305559   6283.581527  21770.594030      6.651712                    
V 19 -13207.994752 -23998.394906  -1530.622115       .028064                    
P 20 -14403.531628  13422.323091 -17907.345254    -23.379589                    
V 20 -22634.691142   -432.085476  17997.161354       .003518                    
P 21   1774.659698 -22701.971531  13283.097267     46.616663                    
V 21  11031.715183 -13288.253190 -24868.848531       .020964                    
P 22 -16219.739229 -12299.290996  17230.092179    124.341855                    
V 22  21595.568620  -1639.826448  19311.733531       .034932                    
P 23  -6095.124128  16203.798415 -20187.959825    137.827291                    
V 23 -14628.379865 -20852.161901 -12554.399254      -.001074                    
P 24   4929.547136  17715.080736 -18833.550931     27.391162                    
V 24 -13793.214930  20316.284339  15582.712490       .030181                    
P 25 -14621.348326  -4210.559347 -21378.735883    283.524770                    
V 25  10460.723476 -26090.567393  -1840.172980       .158455                    
P 26  14481.444950  -3457.894225  21653.324486   -210.845429                    
V 26  14487.335752  24327.180089  -5146.102912      -.138052                    
P 27  -1522.626332  23855.326689  11836.845438     62.212735                    
V 27  -8048.506663  11985.274536 -26874.959570       .018586                    
P 28  12796.523105  13313.485729  19508.532324     21.250177                    
V 28 -23998.614736   1639.246060  14506.170333      -.008466                    
P 29  16173.150653   -960.066128  21336.672990    633.283818                    
V 29  14034.971640  22388.366673  -9452.539944       .011073                    
P 30   4406.342018 -15726.519046 -21218.537659      6.442706                    
V 30  26323.055025  -1394.204114   6707.553697       .011055                    
EOF
